SL-16 R/B               
1 23405U 94077B   26165.22351324 -.00000072  00000+0 -12059-4 0  9994
2 23405  70.9807 149.3974 0002799 329.9508  30.1454 14.15571716629896
ARIANE 40+ R/B          
1 23561U 95021B   26165.20521608  .00000226  00000+0  85860-4 0  9998
2 23561  98.4411 235.3231 0006247 202.8903 218.6061 14.39831796633139
SL-16 R/B               
1 23705U 95058B   26165.23516694  .00000236  00000+0  14490-3 0  9991
2 23705  71.0217 337.5565 0013610 324.5415  35.4802 14.15506713581511
SL-16 R/B               
1 24298U 96051B   26165.19857433  .00000107  00000+0  84585-4 0  9997
2 24298  70.7639 330.9739 0015220 341.3790  18.6771 14.12444879535276
ORBVIEW 2 (SEASTAR)     
1 24883U 97037A   26165.23200461  .00000181  00000+0  79272-4 0  9999
2 24883  98.8684 332.1692 0003123 122.0275 238.1213 14.35551982522321
SL-16 R/B               
1 25400U 98043G   26165.13545375  .00000027  00000+0  30424-4 0  9993
2 25400  98.8363 119.2684 0010937  94.2866 265.9563 14.26068137452731
SL-16 R/B               
1 25407U 98045B   26164.91617888 -.00000210  00000+0 -81770-4 0  9992
2 25407  71.0120 339.2090 0009492 245.7055 114.3077 14.16204335440728
ISS (ZARYA)             
1 25544U 98067A   26165.09325831  .00008623  00000+0  16324-3 0  9998
2 25544  51.6335 315.4063 0004935 183.6835 176.4118 15.49219019571273
CZ-4B R/B               
1 25732U 99025C   26165.10426034  .00000049  00000+0  44113-4 0  9993
2 25732  98.6484 207.0203 0038172  68.2864 351.4858 14.18282944401832
OKEAN-O                 
1 25860U 99039A   26165.17093825  .00000525  00000+0  75433-4 0  9993
2 25860  97.9317 224.0033 0001692  74.2715 285.8684 14.80463819448660
SL-16 R/B               
1 25861U 99039B   26165.12799581  .00000442  00000+0  62691-4 0  9991
2 25861  97.9839 223.9997 0013619 307.7856  52.2122 14.81842502451140
DELTA 2 R/B             
1 25876U 99041E   26164.99031213  .00000759  00000+0  15997-3 0  9992
2 25876  51.7658 276.5672 0500858 272.5657  81.8055 14.12011124376636
HELIOS 1B               
1 25977U 99064A   26165.28709443  .00001274  00000+0  14526-3 0  9999
2 25977  98.1618  70.3429 0002476  94.9806 265.1693 14.87999715699629
TERRA                   
1 25994U 99068A   26165.29058162  .00000350  00000+0  80307-4 0  9993
2 25994  97.9457 214.9516 0001359 200.2607 285.8192 14.61101023409181
SL-16 R/B               
1 26070U 00006B   26165.30981014 -.00000197  00000+0 -75999-4 0  9998
2 26070  71.0023 254.6755 0015365  27.4887 332.7046 14.15834447362232
TITAN 4B R/B            
1 26474U 00047B   26165.27858389  .00002969  00000+0  18536-3 0  9995
2 26474  67.9878 128.7599 0045645 290.2265  69.3980 15.10182437407492
ENVISAT                 
1 27386U 02009A   26165.11052081  .00000063  00000+0  34130-4 0  9998
2 27386  98.3834 116.4975 0001331  89.2129 281.2297 14.39064133273046
IDEFIX & ARIANE 42P R/B 
1 27422U 02021B   26165.26296527  .00000171  00000+0  81636-4 0  9997
2 27422  98.5944 102.7778 0010575 263.5312  96.4667 14.31080871257836
AQUA                    
1 27424U 02022A   26165.25806811  .00000700  00000+0  14890-3 0  9997
2 27424  98.4276 134.4824 0001216  53.7264  58.1315 14.62154171282849
CZ-4B R/B               
1 27432U 02024C   26165.12684925  .00000045  00000+0  45974-4 0  9994
2 27432  98.8701 217.9670 0051159 108.7326 306.0311 14.14563864242872
MIDORI II (ADEOS-II)    
1 27597U 02056A   26165.12799545  .00000222  00000+0  10511-3 0  9991
2 27597  98.7878 124.3618 0002208  80.9343 279.2088 14.29348148224078
H-2A R/B                
1 27601U 02056E   26165.14082609  .00000156  00000+0  69470-4 0  9990
2 27601  98.3311 121.9263 0069061 233.7749 136.5188 14.33820856227939
CZ-4B R/B               
1 28059U 03049C   26165.27439488  .00000260  00000+0  71376-4 0  9990
2 28059  98.6896 164.0049 0047039 297.7073  61.9355 14.55098429200642
CZ-2C R/B               
1 28222U 04012C   26164.86410257  .00106264  00000+0  61086-3 0  9997
2 28222  97.7089 240.1417 0009041 298.2769  61.7584 15.78382930219373
SL-16 R/B               
1 28353U 04021B   26165.04995493 -.00000276  00000+0 -11867-3 0  9993
2 28353  71.0013  30.2741 0007386 258.3670 101.6623 14.14609733136464
CZ-4B R/B               
1 28415U 04035C   26164.99458687  .00007996  00000+0  26928-3 0  9997
2 28415  97.3366 198.1038 0030267 349.6523  10.4091 15.30584742194633
CZ-2C R/B               
1 28480U 04046B   26165.24659617  .00000063  00000+0  39041-4 0  9995
2 28480  98.1948  74.2111 0138347 229.0229 129.8917 14.27025939122274
ARIANE 5 R/B            
1 28499U 04049H   26165.23376244  .00000593  00000+0  71554-4 0  9992
2 28499  98.2719 337.3728 0084698  38.9175 321.8094 14.85445489160120
CZ-2D R/B               
1 28738U 05024B   26164.96748479  .00057642  00000+0  49423-3 0  9990
2 28738  97.3480 184.2352 0003915  61.3183 298.8472 15.69227933154834
ALOS (DAICHI)           
1 28931U 06002A   26165.29982246  .00000936  00000+0  16430-3 0  9997
2 28931  98.1323 120.8762 0001563  58.3393 301.7965 14.70044979 87677
