OBJECT_NAME,OBJECT_ID,EPOCH,MEAN_MOTION,ECCENTRICITY,INCLINATION,RA_OF_ASC_NODE,ARG_OF_PERICENTER,MEAN_ANOMALY,EPHEMERIS_TYPE,CLASSIFICATION_TYPE,NORAD_CAT_ID,ELEMENT_SET_NO,REV_AT_EPOCH,BSTAR,MEAN_MOTION_DOT,MEAN_MOTION_DDOT
SL-16 R/B,1994-077B,2026-06-14T05:21:51.543936,14.15571716,.00027991,70.9807,149.3974,329.9508,30.1454,0,U,23405,999,62989,-.12059004E-4,-.72E-6,0
ARIANE 40+ R/B,1995-021B,2026-06-14T04:55:30.669312,14.39831796,.00062475,98.4411,235.3231,202.8903,218.6061,0,U,23561,999,63313,.85859961E-4,.226E-5,0
SL-16 R/B,1995-058B,2026-06-14T05:38:38.423616,14.15506713,.00136102,71.0217,337.5565,324.5415,35.4802,0,U,23705,999,58151,.14489658E-3,.236E-5,0
SL-16 R/B,1996-051B,2026-06-14T04:45:56.822112,14.12444879,.001522,70.7639,330.9739,341.3790,18.6771,0,U,24298,999,53527,.84584799E-4,.107E-5,0
ORBVIEW 2 (SEASTAR),1997-037A,2026-06-14T05:34:05.198304,14.35551982,.00031235,98.8684,332.1692,122.0275,238.1213,0,U,24883,999,52232,.79272301E-4,.181E-5,0
SL-16 R/B,1998-043G,2026-06-14T03:15:03.204000,14.26068137,.00109373,98.8363,119.2684,94.2866,265.9563,0,U,25400,999,45273,.30423693E-4,.27E-6,0
SL-16 R/B,1998-045B,2026-06-13T21:59:17.855232,14.16204335,.0009492,71.0120,339.2090,245.7055,114.3077,0,U,25407,999,44072,-.8177E-4,-.21E-5,0
ISS (ZARYA),1998-067A,2026-06-14T02:14:17.517984,15.49219019,.00049359,51.6335,315.4063,183.6835,176.4118,0,U,25544,999,57127,.16324084E-3,.8623E-4,0
CZ-4B R/B,1999-025C,2026-06-14T02:30:08.093376,14.18282944,.0038172,98.6484,207.0203,68.2864,351.4858,0,U,25732,999,40183,.44113108E-4,.49E-6,0
OKEAN-O,1999-039A,2026-06-14T04:06:09.064800,14.80463819,.00016929,97.9317,224.0033,74.2715,285.8684,0,U,25860,999,44866,.7543342E-4,.525E-5,0
SL-16 R/B,1999-039B,2026-06-14T03:04:18.837984,14.81842502,.00136197,97.9839,223.9997,307.7856,52.2122,0,U,25861,999,45114,.62691444E-4,.442E-5,0
DELTA 2 R/B,1999-041E,2026-06-13T23:46:02.968032,14.12011124,.05008586,51.7658,276.5672,272.5657,81.8055,0,U,25876,999,37663,.15997193E-3,.759E-5,0
HELIOS 1B,1999-064A,2026-06-14T06:53:24.958752,14.87999715,.00024769,98.1618,70.3429,94.9806,265.1693,0,U,25977,999,69962,.14525583E-3,.1274E-4,0
TERRA,1999-068A,2026-06-14T06:58:26.251968,14.61101023,.00013596,97.9457,214.9516,200.2607,285.8192,0,U,25994,999,40918,.80306705E-4,.35E-5,0
SL-16 R/B,2000-006B,2026-06-14T07:26:07.596096,14.15834447,.0015365,71.0023,254.6755,27.4887,332.7046,0,U,26070,999,36223,-.75998898E-4,-.197E-5,0
TITAN 4B R/B,2000-047B,2026-06-14T06:41:09.648096,15.10182437,.0045645,67.9878,128.7599,290.2265,69.3980,0,U,26474,999,40749,.18536496E-3,.2969E-4,0
ENVISAT,2002-009A,2026-06-14T02:39:08.997984,14.39064133,.00013315,98.3834,116.4975,89.2129,281.2297,0,U,27386,999,27304,.34130415E-4,.63E-6,0
IDEFIX & ARIANE 42P R/B,2002-021B,2026-06-14T06:18:40.199328,14.31080871,.00105751,98.5944,102.7778,263.5312,96.4667,0,U,27422,999,25783,.81636351E-4,.171E-5,0
AQUA,2002-022A,2026-06-14T06:11:37.084704,14.62154171,.00012169,98.4276,134.4824,53.7264,58.1315,0,U,27424,999,28284,.14890224E-3,.7E-5,0
CZ-4B R/B,2002-024C,2026-06-14T03:02:39.775200,14.14563864,.00511594,98.8701,217.9670,108.7326,306.0311,0,U,27432,999,24287,.45974061E-4,.45E-6,0
MIDORI II (ADEOS-II),2002-056A,2026-06-14T03:04:18.806880,14.29348148,.00022089,98.7878,124.3618,80.9343,279.2088,0,U,27597,999,22407,.10511474E-3,.222E-5,0
H-2A R/B,2002-056E,2026-06-14T03:22:47.374176,14.33820856,.00690617,98.3311,121.9263,233.7749,136.5188,0,U,27601,999,22793,.6946987E-4,.156E-5,0
CZ-4B R/B,2003-049C,2026-06-14T06:35:07.717632,14.55098429,.00470392,98.6896,164.0049,297.7073,61.9355,0,U,28059,999,20064,.71376092E-4,.26E-5,0
CZ-2C R/B,2004-012C,2026-06-13T20:44:18.462048,15.78382930,.00090418,97.7089,240.1417,298.2769,61.7584,0,U,28222,999,21937,.61085894E-3,.106264E-2,0
SL-16 R/B,2004-021B,2026-06-14T01:11:56.105952,14.14609733,.00073866,71.0013,30.2741,258.3670,101.6623,0,U,28353,999,13646,-.11867199E-3,-.276E-5,0
CZ-4B R/B,2004-035C,2026-06-13T23:52:12.305568,15.30584742,.00302674,97.3366,198.1038,349.6523,10.4091,0,U,28415,999,19463,.26927576E-3,.7996E-4,0
CZ-2C R/B,2004-046B,2026-06-14T05:55:05.909088,14.27025939,.01383473,98.1948,74.2111,229.0229,129.8917,0,U,28480,999,12227,.39040817E-4,.63E-6,0
ARIANE 5 R/B,2004-049H,2026-06-14T05:36:37.074816,14.85445489,.0084698,98.2719,337.3728,38.9175,321.8094,0,U,28499,999,16012,.7155358E-4,.593E-5,0
CZ-2D R/B,2005-024B,2026-06-13T23:13:10.685856,15.69227933,.00039152,97.3480,184.2352,61.3183,298.8472,0,U,28738,999,15483,.49423071E-3,.57642E-3,0
ALOS (DAICHI),2006-002A,2026-06-14T07:11:44.660544,14.70044979,.00015633,98.1323,120.8762,58.3393,301.7965,0,U,28931,999,8767,.16430221E-3,.936E-5,0
